[{"OBJECT_NAME":"KUIPER-00059","OBJECT_ID":"2025-134V","EPOCH":"2026-03-09T17:04:14.081376","MEAN_MOTION":14.79930671,"ECCENTRICITY":9.053e-5,"INCLINATION":51.8998,"RA_OF_ASC_NODE":220.4892,"ARG_OF_PERICENTER":151.7188,"MEAN_ANOMALY":208.3824,"EPHEMERIS_TYPE":0,"CLASSIFICATION_TYPE":"U","NORAD_CAT_ID":64519,"ELEMENT_SET_NO":999,"REV_AT_EPOCH":4025,"BSTAR":0.00030289099,"MEAN_MOTION_DOT":2.088e-5,"MEAN_MOTION_DDOT":0},{"OBJECT_NAME":"CZ-2C DEB","OBJECT_ID":"2014-059C","EPOCH":"2026-03-09T21:10:12.095616","MEAN_MOTION":14.89082619,"ECCENTRICITY":0.00574388,"INCLINATION":98.186,"RA_OF_ASC_NODE":178.5961,"ARG_OF_PERICENTER":246.4472,"MEAN_ANOMALY":113.0704,"EPHEMERIS_TYPE":0,"CLASSIFICATION_TYPE":"U","NORAD_CAT_ID":40263,"ELEMENT_SET_NO":999,"REV_AT_EPOCH":60828,"BSTAR":0.0019374157,"MEAN_MOTION_DOT":0.00018813,"MEAN_MOTION_DDOT":0}]
